{
  "norad_id": 41945,
  "name": "INTELSAT 32E (IS-32E)",
  "history": [
    {
      "epoch": "2026-03-28T10:10:41.045952Z",
      "apogee_km": 35784.715055935885,
      "perigee_km": 35774.97993415629,
      "latitude_deg": 0.04007173156175119,
      "longitude_deg": -43.1501251393504,
      "height_km": 35781.776177662556,
      "semi_major_axis_km": 42157.98449504609,
      "eccentricity": 0.00011546,
      "inclination_deg": 0.0239,
      "raan_deg": 172.2776,
      "arg_perigee_deg": 243.5388,
      "mean_anomaly_deg": 239.5372,
      "mean_motion_rev_day": 1.00295859
    },
    {
      "epoch": "2026-03-29T04:16:15.197952Z",
      "apogee_km": 35789.56521396263,
      "perigee_km": 35784.134363664234,
      "latitude_deg": 0.0225330145053992,
      "longitude_deg": -43.15455292202244,
      "height_km": 35786.011803111185,
      "semi_major_axis_km": 42164.98678881343,
      "eccentricity": 6.44e-05,
      "inclination_deg": 0.0241,
      "raan_deg": 178.4201,
      "arg_perigee_deg": 112.0226,
      "mean_anomaly_deg": 277.0379,
      "mean_motion_rev_day": 1.00270876
    },
    {
      "epoch": "2026-03-29T04:16:15.198816Z",
      "apogee_km": 35789.56437066289,
      "perigee_km": 35784.13520696397,
      "latitude_deg": 0.02253301619756124,
      "longitude_deg": -43.15455426534528,
      "height_km": 35786.01190414158,
      "semi_major_axis_km": 42164.98678881343,
      "eccentricity": 6.438e-05,
      "inclination_deg": 0.0241,
      "raan_deg": 178.4201,
      "arg_perigee_deg": 112.0226,
      "mean_anomaly_deg": 277.0379,
      "mean_motion_rev_day": 1.00270876
    },
    {
      "epoch": "2026-04-01T10:59:34.753632Z",
      "apogee_km": 35788.95537413014,
      "perigee_km": 35786.965134339735,
      "latitude_deg": 0.04488404477402409,
      "longitude_deg": -43.16445881834072,
      "height_km": 35786.79480938325,
      "semi_major_axis_km": 42166.09725423494,
      "eccentricity": 2.36e-05,
      "inclination_deg": 0.0218,
      "raan_deg": 196.8044,
      "arg_perigee_deg": 65.9393,
      "mean_anomaly_deg": 48.7897,
      "mean_motion_rev_day": 1.00266915
    },
    {
      "epoch": "2026-04-02T19:30:29.424384Z",
      "apogee_km": 35789.22620603198,
      "perigee_km": 35786.17339944745,
      "latitude_deg": -0.041066705387947,
      "longitude_deg": -43.17552781515701,
      "height_km": 35787.78256130118,
      "semi_major_axis_km": 42165.836802739715,
      "eccentricity": 3.62e-05,
      "inclination_deg": 0.0202,
      "raan_deg": 197.1238,
      "arg_perigee_deg": 130.5645,
      "mean_anomaly_deg": 112.8995,
      "mean_motion_rev_day": 1.00267844
    },
    {
      "epoch": "2026-04-02T21:13:12.073728Z",
      "apogee_km": 35789.3676901814,
      "perigee_km": 35786.178260750865,
      "latitude_deg": -0.046491468740136516,
      "longitude_deg": -43.17733952571108,
      "height_km": 35788.445654205265,
      "semi_major_axis_km": 42165.90997546614,
      "eccentricity": 3.782e-05,
      "inclination_deg": 0.0199,
      "raan_deg": 197.2261,
      "arg_perigee_deg": 131.311,
      "mean_anomaly_deg": 137.798,
      "mean_motion_rev_day": 1.00267583
    },
    {
      "epoch": "2026-04-03T19:28:01.515360Z",
      "apogee_km": 35789.56894071636,
      "perigee_km": 35785.993270860985,
      "latitude_deg": -0.03665513186692437,
      "longitude_deg": -43.17706510776165,
      "height_km": 35788.124709868105,
      "semi_major_axis_km": 42165.918105788674,
      "eccentricity": 4.24e-05,
      "inclination_deg": 0.0194,
      "raan_deg": 205.6632,
      "arg_perigee_deg": 116.6505,
      "mean_anomaly_deg": 118.6424,
      "mean_motion_rev_day": 1.00267554
    },
    {
      "epoch": "2026-04-04T09:09:30.296160Z",
      "apogee_km": 35788.19470721547,
      "perigee_km": 35785.297979729774,
      "latitude_deg": 0.04084278888475132,
      "longitude_deg": -43.1879036915287,
      "height_km": 35784.80675222186,
      "semi_major_axis_km": 42164.883343472626,
      "eccentricity": 3.435e-05,
      "inclination_deg": 0.0173,
      "raan_deg": 212.6232,
      "arg_perigee_deg": 65.6795,
      "mean_anomaly_deg": 8.5797,
      "mean_motion_rev_day": 1.00271245
    },
    {
      "epoch": "2026-04-05T05:41:41.266752Z",
      "apogee_km": 35788.64845168328,
      "perigee_km": 35785.75590941549,
      "latitude_deg": 0.015148166444822125,
      "longitude_deg": -43.181130665773146,
      "height_km": 35785.682729336055,
      "semi_major_axis_km": 42165.33918054939,
      "eccentricity": 3.43e-05,
      "inclination_deg": 0.0193,
      "raan_deg": 215.5644,
      "arg_perigee_deg": 65.8378,
      "mean_anomaly_deg": 314.381,
      "mean_motion_rev_day": 1.00269619
    },
    {
      "epoch": "2026-04-05T19:23:05.472672Z",
      "apogee_km": 35787.816533135556,
      "perigee_km": 35784.7022708173,
      "latitude_deg": -0.027385088838850154,
      "longitude_deg": -43.180076387276046,
      "height_km": 35787.116319682,
      "semi_major_axis_km": 42164.39640197643,
      "eccentricity": 3.693e-05,
      "inclination_deg": 0.0171,
      "raan_deg": 219.449,
      "arg_perigee_deg": 70.6591,
      "mean_anomaly_deg": 151.5852,
      "mean_motion_rev_day": 1.00272982
    },
    {
      "epoch": "2026-04-07T13:50:09.282048Z",
      "apogee_km": 35789.196658614215,
      "perigee_km": 35784.846057574825,
      "latitude_deg": 0.02629245838740525,
      "longitude_deg": -43.17373624038406,
      "height_km": 35786.64568433648,
      "semi_major_axis_km": 42165.15835809452,
      "eccentricity": 5.159e-05,
      "inclination_deg": 0.0177,
      "raan_deg": 228.5756,
      "arg_perigee_deg": 38.1869,
      "mean_anomaly_deg": 93.444,
      "mean_motion_rev_day": 1.00270264
    },
    {
      "epoch": "2026-04-07T19:18:15.571296Z",
      "apogee_km": 35789.18297318462,
      "perigee_km": 35784.89899110164,
      "latitude_deg": -0.023236248634684604,
      "longitude_deg": -43.18075501948107,
      "height_km": 35788.66789350544,
      "semi_major_axis_km": 42165.177982143134,
      "eccentricity": 5.08e-05,
      "inclination_deg": 0.0176,
      "raan_deg": 226.6842,
      "arg_perigee_deg": 38.7136,
      "mean_anomaly_deg": 177.0582,
      "mean_motion_rev_day": 1.00270194
    },
    {
      "epoch": "2026-04-08T14:31:07.751712Z",
      "apogee_km": 35788.96576501813,
      "perigee_km": 35785.26534245402,
      "latitude_deg": 0.018816021398812638,
      "longitude_deg": -43.18112069948147,
      "height_km": 35787.24935732853,
      "semi_major_axis_km": 42165.25255373608,
      "eccentricity": 4.388e-05,
      "inclination_deg": 0.0184,
      "raan_deg": 224.4736,
      "arg_perigee_deg": 36.7098,
      "mean_anomaly_deg": 110.2747,
      "mean_motion_rev_day": 1.00269928
    },
    {
      "epoch": "2026-04-09T18:56:08.043936Z",
      "apogee_km": 35788.40647293892,
      "perigee_km": 35785.32842761405,
      "latitude_deg": -0.01270382353996974,
      "longitude_deg": -43.1809876322602,
      "height_km": 35787.315317680375,
      "semi_major_axis_km": 42165.00445027649,
      "eccentricity": 3.65e-05,
      "inclination_deg": 0.0015,
      "raan_deg": 166.1166,
      "arg_perigee_deg": 144.0883,
      "mean_anomaly_deg": 128.6736,
      "mean_motion_rev_day": 1.00270813
    },
    {
      "epoch": "2026-04-09T20:55:54.250752Z",
      "apogee_km": 35788.43255683861,
      "perigee_km": 35785.34607691222,
      "latitude_deg": -0.01367662330066889,
      "longitude_deg": -43.183058087479395,
      "height_km": 35787.82415274434,
      "semi_major_axis_km": 42165.02631687542,
      "eccentricity": 3.66e-05,
      "inclination_deg": 0.0015,
      "raan_deg": 164.9419,
      "arg_perigee_deg": 144.1648,
      "mean_anomaly_deg": 159.7961,
      "mean_motion_rev_day": 1.00270735
    },
    {
      "epoch": "2026-04-11T08:52:10.823808Z",
      "apogee_km": 35788.74461119035,
      "perigee_km": 35784.376348531434,
      "latitude_deg": 0.0357094094804685,
      "longitude_deg": -43.17650816535739,
      "height_km": 35783.98324976048,
      "semi_major_axis_km": 42164.69747986089,
      "eccentricity": 5.18e-05,
      "inclination_deg": 0.02,
      "raan_deg": 227.9043,
      "arg_perigee_deg": 43.0946,
      "mean_anomaly_deg": 18.4564,
      "mean_motion_rev_day": 1.00271908
    },
    {
      "epoch": "2026-04-12T22:30:55.405728Z",
      "apogee_km": 35789.620068209646,
      "perigee_km": 35783.62423945797,
      "latitude_deg": -0.03810391138104501,
      "longitude_deg": -43.17629949572788,
      "height_km": 35788.77741591955,
      "semi_major_axis_km": 42164.75915383381,
      "eccentricity": 7.11e-05,
      "inclination_deg": 0.0189,
      "raan_deg": 238.1223,
      "arg_perigee_deg": 50.5776,
      "mean_anomaly_deg": 206.9955,
      "mean_motion_rev_day": 1.00271688
    },
    {
      "epoch": "2026-04-14T19:00:26.868096Z",
      "apogee_km": 35790.365444135605,
      "perigee_km": 35784.02377826128,
      "latitude_deg": -0.024626637291815315,
      "longitude_deg": -43.18473391448748,
      "height_km": 35789.83866782796,
      "semi_major_axis_km": 42165.331611198446,
      "eccentricity": 7.52e-05,
      "inclination_deg": 0.022,
      "raan_deg": 240.6868,
      "arg_perigee_deg": 19.4847,
      "mean_anomaly_deg": 184.7249,
      "mean_motion_rev_day": 1.00269646
    },
    {
      "epoch": "2026-04-15T18:57:53.220384Z",
      "apogee_km": 35791.5157604031,
      "perigee_km": 35784.5752067663,
      "latitude_deg": -0.02909242887570154,
      "longitude_deg": -43.20086104240962,
      "height_km": 35790.939100519456,
      "semi_major_axis_km": 42166.1824835847,
      "eccentricity": 8.23e-05,
      "inclination_deg": 0.0213,
      "raan_deg": 231.0852,
      "arg_perigee_deg": 23.244,
      "mean_anomaly_deg": 190.8979,
      "mean_motion_rev_day": 1.00266611
    }
  ]
}